[
  {
    "id": 51,
    "name": "APPLEBEE'S",
    "address1": "7242 Baltimore Ave",
    "address2": "College Park, MD",
    "zip": 20740
  },
  {
    "id": 61,
    "name": "AROY THAI RESTAURANT",
    "address1": "4511 College Ave",
    "address2": "College Park, MD",
    "zip": 20740
  },
  {
    "id": 67,
    "name": "RASOI RESTAURANT",
    "address1": "8601 Baltimore Ave",
    "address2": "College Park, MD",
    "zip": 20740
  },
  {
    "id": 76,
    "name": "AZTECA BAR & GRILL",
    "address1": "9505 Baltimore Ave",
    "address2": "College Park, MD",
    "zip": 20740
  },
  {
    "id": 84,
    "name": "BAGEL PLACE OF COLLEGE PARK",
    "address1": "7423 Baltimore Ave",
    "address2": "College Park, MD",
    "zip": 20740
  },
  {
    "id": 110,
    "name": "BIG PLAY SPORTS GRILL",
    "address1": "7313 Baltimore Ave",
    "address2": "College Park, MD",
    "zip": 20740
  },
  {
    "id": 136,
    "name": "BUFFALO WILD WINGS",
    "address1": "10240 Baltimore Ave",
    "address2": "College Park, MD",
    "zip": 20740
  },
  {
    "id": 206,
    "name": "BURGER KING",
    "address1": "8510 Baltimore Ave",
    "address2": "College Park, MD",
    "zip": 20740
  },
  {
    "id": 272,
    "name": "CHECKERS DRIVE THRU RESTAURANT",
    "address1": "6051 Greenbelt Rd",
    "address2": "College Park, MD",
    "zip": 20740
  },
  {
    "id": 302,
    "name": "CHINA BUFFET",
    "address1": "9098 Baltimore Ave",
    "address2": "College Park, MD",
    "zip": 20740
  },
  {
    "id": 324,
    "name": "CHIPOTLE MEXICAN GRILL",
    "address1": "7332 Baltimore Ave",
    "address2": "College Park, MD",
    "zip": 20740
  },
  {
    "id": 329,
    "name": "CHIPOTLE MEXICAN GRILL",
    "address1": "10250 Baltimore Ave",
    "address2": "College Park, MD",
    "zip": 20740
  },
  {
    "id": 336,
    "name": "CLUCK-U CHICKEN",
    "address1": "7415 Baltimore Ave",
    "address2": "College Park, MD",
    "zip": 20740
  },
  {
    "id": 342,
    "name": "COLLEGE PARK DINER",
    "address1": "9206 Baltimore Ave",
    "address2": "College Park, MD",
    "zip": 20740
  },
  {
    "id": 355,
    "name": "CORNERSTONE GRILL & LOFT",
    "address1": "7325 Baltimore Ave",
    "address2": "College Park, MD",
    "zip": 20740
  },
  {
    "id": 408,
    "name": "DP DOUGH",
    "address1": "8145 Baltimore Ave",
    "address2": "College Park, MD",
    "zip": 20740
  },
  {
    "id": 441,
    "name": "EDDIE'S CAFE",
    "address1": "9823 Rhode Island Ave",
    "address2": "College Park, MD",
    "zip": 20740
  },
  {
    "id": 449,
    "name": "MILK & HONEY CAFE",
    "address1": "10280 Baltimore Ave",
    "address2": "College Park, MD",
    "zip": 20740
  },
  {
    "id": 458,
    "name": "EL CORDOBES",
    "address1": "9933 Rhode Island Ave",
    "address2": "College Park, MD",
    "zip": 20740
  },
  {
    "id": 514,
    "name": "FOOD FACTORY",
    "address1": "8145 Baltimore Ave",
    "address2": "College Park, MD",
    "zip": 20740
  },
  {
    "id": 533,
    "name": "SARDI'S CATERING",
    "address1": "9204 Baltimore Ave",
    "address2": "College Park, MD",
    "zip": 20740
  },
  {
    "id": 555,
    "name": "GARBANZO MEDITERRANEAN GRILL",
    "address1": "7316 Baltimore Ave",
    "address2": "College Park, MD",
    "zip": 20740
  },
  {
    "id": 638,
    "name": "HANAMI JAPANESE RESTAURANT",
    "address1": "8145 Baltimore Ave",
    "address2": "College Park, MD",
    "zip": 20740
  },
  {
    "id": 643,
    "name": "HARD TIMES CAFE",
    "address1": "4738 Cherry Hill Rd",
    "address2": "College Park, MD",
    "zip": 20740
  },
  {
    "id": 667,
    "name": "HOLLYWOOD ELEMENTARY SCHOOL",
    "address1": "9811 49Th Ave",
    "address2": "College Park, MD",
    "zip": 20740
  },
  {
    "id": 702,
    "name": "IHOP - COLLEGE PARK",
    "address1": "9680 Baltimore Ave",
    "address2": "College Park, MD",
    "zip": 20740
  },
  {
    "id": 703,
    "name": "IKEA",
    "address1": "10100 Baltimore Ave",
    "address2": "College Park, MD",
    "zip": 20740
  },
  {
    "id": 730,
    "name": "JASON'S DELI",
    "address1": "7356 Baltimore Ave",
    "address2": "College Park, MD",
    "zip": 20740
  },
  {
    "id": 807,
    "name": "KFC",
    "address1": "6101 Greenbelt Rd",
    "address2": "College Park, MD",
    "zip": 20740
  },
  {
    "id": 824,
    "name": "KIYOKO EXPRESS",
    "address1": "7313 Baltimore Ave",
    "address2": "College Park, MD",
    "zip": 20740
  },
  {
    "id": 832,
    "name": "KRAZI KEBOB",
    "address1": "4427 Lehigh Rd",
    "address2": "College Park, MD",
    "zip": 20740
  },
  {
    "id": 880,
    "name": "LEDO RESTAURANT",
    "address1": "4509 Knox Rd",
    "address2": "College Park, MD",
    "zip": 20740
  },
  {
    "id": 902,
    "name": "LOONEYS PUB",
    "address1": "8150 Baltimore Ave",
    "address2": "College Park, MD",
    "zip": 20740
  },
  {
    "id": 929,
    "name": "MAMMA LUCIA PIZZA & PASTA",
    "address1": "4734 Cherry Hill Rd",
    "address2": "College Park, MD",
    "zip": 20740
  },
  {
    "id": 941,
    "name": "MARATHON DELI",
    "address1": "4429 Lehigh Rd",
    "address2": "College Park, MD",
    "zip": 20740
  },
  {
    "id": 965,
    "name": "MEALS ON WHEELS OF COLLEGE PARK",
    "address1": "9601 Rhode Island Ave",
    "address2": "College Park, MD",
    "zip": 20740
  },
  {
    "id": 997,
    "name": "MOOSE CREEK STEAKHOUSE",
    "address1": "10000 Baltimore Ave",
    "address2": "College Park, MD",
    "zip": 20740
  },
  {
    "id": 1015,
    "name": "NELLY'S CAFE",
    "address1": "9917 Rhode Island Ave",
    "address2": "College Park, MD",
    "zip": 20740
  },
  {
    "id": 1027,
    "name": "NEW SHANGHAI CAFE",
    "address1": "7409 Baltimore Ave",
    "address2": "College Park, MD",
    "zip": 20740
  },
  {
    "id": 1031,
    "name": "NEW YORK DELI",
    "address1": "4926 Edgewood Rd",
    "address2": "College Park, MD",
    "zip": 20740
  },
  {
    "id": 1039,
    "name": "NOODLES & COMPANY",
    "address1": "7320 Baltimore Ave",
    "address2": "College Park, MD",
    "zip": 20740
  },
  {
    "id": 1121,
    "name": "PHO D'LITE",
    "address1": "8147 Baltimore Ave",
    "address2": "College Park, MD",
    "zip": 20740
  },
  {
    "id": 1123,
    "name": "PHO THOM RESTAURANT",
    "address1": "7313 Baltimore Ave",
    "address2": "College Park, MD",
    "zip": 20740
  },
  {
    "id": 1129,
    "name": "PIZZA AUTENTICA",
    "address1": "8300 Baltimore Ave",
    "address2": "College Park, MD",
    "zip": 20740
  },
  {
    "id": 1137,
    "name": "PIZZA BOLIS",
    "address1": "8147 Baltimore Ave",
    "address2": "College Park, MD",
    "zip": 20740
  },
  {
    "id": 1146,
    "name": "PIZZA HUT 23538",
    "address1": "9015 Baltimore Ave",
    "address2": "College Park, MD",
    "zip": 20740
  },
  {
    "id": 1152,
    "name": "PIZZA KINGDOM",
    "address1": "4439 Lehigh Rd",
    "address2": "College Park, MD",
    "zip": 20740
  },
  {
    "id": 1155,
    "name": "PIZZA ROMA",
    "address1": "9805 Rhode Island Ave",
    "address2": "College Park, MD",
    "zip": 20740
  },
  {
    "id": 1157,
    "name": "PLATO'S DINER",
    "address1": "7150 Baltimore Ave",
    "address2": "College Park, MD",
    "zip": 20740
  },
  {
    "id": 1206,
    "name": "PUPUSERIA LA FAMILIAR",
    "address1": "8145 Baltimore Ave",
    "address2": "College Park, MD",
    "zip": 20740
  },
  {
    "id": 1219,
    "name": "R J BENTLEYS RESTAURANT",
    "address1": "7323 Baltimore Ave",
    "address2": "College Park, MD",
    "zip": 20740
  },
  {
    "id": 1222,
    "name": "NANDO'S PERI PERI",
    "address1": "7400 Baltimore Ave",
    "address2": "College Park, MD",
    "zip": 20740
  },
  {
    "id": 1266,
    "name": "ROYAL FARMS",
    "address1": "8150 Baltimore Ave",
    "address2": "College Park, MD",
    "zip": 20740
  },
  {
    "id": 1277,
    "name": "SABRA DELI / MARYLAND HILLEL KOSHER DINING",
    "address1": "7612 Mowatt Ln",
    "address2": "College Park, MD",
    "zip": 20740
  },
  {
    "id": 1304,
    "name": "SAKURA SEAFOOD BUFFET",
    "address1": "9031 Baltimore Ave",
    "address2": "College Park, MD",
    "zip": 20740
  },
  {
    "id": 1316,
    "name": "SARKU JAPAN TERIYAKI & SUSHI EXPRESS",
    "address1": "10280 Baltimore Ave",
    "address2": "College Park, MD",
    "zip": 20740
  },
  {
    "id": 1352,
    "name": "SHANGHAI TOKYO CAFE",
    "address1": "8300 Baltimore Ave",
    "address2": "College Park, MD",
    "zip": 20740
  },
  {
    "id": 1355,
    "name": "SHEN YANG RESTAURANT",
    "address1": "9905 Rhode Island Ave",
    "address2": "College Park, MD",
    "zip": 20740
  },
  {
    "id": 1362,
    "name": "SHOPPERS FOOD WAREHOUSE",
    "address1": "4720 Cherry Hill Rd",
    "address2": "College Park, MD",
    "zip": 20740
  },
  {
    "id": 1387,
    "name": "BALKONIE RESTAURANT GROUP LLC",
    "address1": "6323 Greenbelt Rd",
    "address2": "College Park, MD",
    "zip": 20740
  },
  {
    "id": 1403,
    "name": "NORTH WEST CHINESE FOOD",
    "address1": "7313 Baltimore Ave",
    "address2": "College Park, MD",
    "zip": 20740
  },
  {
    "id": 1433,
    "name": "SUBWAY",
    "address1": "7411 Baltimore Ave",
    "address2": "College Park, MD",
    "zip": 20740
  },
  {
    "id": 1482,
    "name": "SUSHI AVENUE (INSIDE SHOPPERS MARKET)",
    "address1": "4720 Cherry Hill Rd",
    "address2": "College Park, MD",
    "zip": 20740
  },
  {
    "id": 1487,
    "name": "SWEETGREEN COLLEGE PARK",
    "address1": "8300 Baltimore Ave",
    "address2": "College Park, MD",
    "zip": 20740
  },
  {
    "id": 1496,
    "name": "TACO BELL 28976",
    "address1": "8428 Baltimore Ave",
    "address2": "College Park, MD",
    "zip": 20740
  },
  {
    "id": 1532,
    "name": "TEN REN'S TEA TIME",
    "address1": "7418 Baltimore Ave",
    "address2": "College Park, MD",
    "zip": 20740
  },
  {
    "id": 1536,
    "name": "TERRAPIN'S TURF",
    "address1": "4410 Knox Rd",
    "address2": "College Park, MD",
    "zip": 20740
  },
  {
    "id": 1551,
    "name": "THE JERK PIT",
    "address1": "9078 Baltimore Ave",
    "address2": "College Park, MD",
    "zip": 20740
  },
  {
    "id": 1552,
    "name": "NU VEGAN CAFE & CATERING",
    "address1": "8150 Baltimore Ave",
    "address2": "College Park, MD",
    "zip": 20740
  },
  {
    "id": 1593,
    "name": "251 NORTH (UMCP)",
    "address1": "3841 Campus Dr",
    "address2": "College Park, MD",
    "zip": 20742
  },
  {
    "id": 1594,
    "name": "ADELE'S  (UMCP)",
    "address1": "3841 Campus Dr",
    "address2": "College Park, MD",
    "zip": 20742
  },
  {
    "id": 1595,
    "name": "APPLAUSE CAFE  (UMCP)",
    "address1": "3841 Campus Dr",
    "address2": "College Park, MD",
    "zip": 20742
  },
  {
    "id": 1597,
    "name": "CHICK-FIL-A (UMCP)",
    "address1": "3841 Campus Dr",
    "address2": "College Park, MD",
    "zip": 20742
  },
  {
    "id": 1598,
    "name": "XFINITY CENTER - COMMISSARY",
    "address1": "3841 Campus Dr",
    "address2": "College Park, MD",
    "zip": 20742
  },
  {
    "id": 1599,
    "name": "XFINITY CENTER - HERITAGE HALL",
    "address1": "3841 Campus Dr",
    "address2": "College Park, MD",
    "zip": 20742
  },
  {
    "id": 1601,
    "name": "ELLICOTT DINING HALL (UMCP)",
    "address1": "3841 Campus Dr",
    "address2": "College Park, MD",
    "zip": 20742
  },
  {
    "id": 1602,
    "name": "GOSSETT FIELD HOUSE (UMCP)",
    "address1": "3841 Campus Dr",
    "address2": "College Park, MD",
    "zip": 20742
  },
  {
    "id": 1603,
    "name": "MARYLAND FOOD COLLECTIVE (UMCP)",
    "address1": "3841 Campus Dr",
    "address2": "College Park, MD",
    "zip": 20742
  },
  {
    "id": 1604,
    "name": "MULLIGANS GRILL (UMCP)",
    "address1": "3841 Campus Dr",
    "address2": "College Park, MD",
    "zip": 20742
  },
  {
    "id": 1605,
    "name": "PANDA EXPRESS (UMCP)",
    "address1": "3841 Campus Dr",
    "address2": "College Park, MD",
    "zip": 20742
  },
  {
    "id": 1606,
    "name": "PANDA EXPRESS KIOSK  (UMCP)",
    "address1": "3841 Campus Dr",
    "address2": "College Park, MD",
    "zip": 20742
  },
  {
    "id": 1607,
    "name": "SALADWORKS (UMCP)",
    "address1": "3841 Campus Dr",
    "address2": "College Park, MD",
    "zip": 20742
  },
  {
    "id": 1608,
    "name": "SBARRO'S (UMCP)",
    "address1": "3841 Campus Dr",
    "address2": "College Park, MD",
    "zip": 20742
  },
  {
    "id": 1609,
    "name": "SOUTH CAMPUS DINING HALL (UMCP)",
    "address1": "3841 Campus Dr",
    "address2": "College Park, MD",
    "zip": 20742
  },
  {
    "id": 1610,
    "name": "STAMP UNION CATERING KITCHEN (UMCP)",
    "address1": "3841 Campus Dr",
    "address2": "College Park, MD",
    "zip": 20742
  },
  {
    "id": 1611,
    "name": "SUBWAY (UMCP)",
    "address1": "3841 Campus Dr",
    "address2": "College Park, MD",
    "zip": 20742
  },
  {
    "id": 1612,
    "name": "TACO BELL ENGINEERING (UMCP)",
    "address1": "3841 Campus Dr",
    "address2": "College Park, MD",
    "zip": 20742
  },
  {
    "id": 1613,
    "name": "QDOBA (UMCP)",
    "address1": "3972 Campus Dr",
    "address2": "College Park, MD",
    "zip": 20742
  },
  {
    "id": 1614,
    "name": "JALAPENO GRILL SEASONS 12 MONGOLIAN GRILL (UMCP)",
    "address1": "3841 Campus Dr",
    "address2": "College Park, MD",
    "zip": 20742
  },
  {
    "id": 1618,
    "name": "CARIBBEAN COVE LLC",
    "address1": "9348 Cherry Hill Rd",
    "address2": "College Park, MD",
    "zip": 20740
  },
  {
    "id": 1635,
    "name": "WASABI BISTRO",
    "address1": "4505 College Ave",
    "address2": "College Park, MD",
    "zip": 20740
  },
  {
    "id": 1683,
    "name": "YUM'S EXPRESS",
    "address1": "4746 Cherry Hill Rd",
    "address2": "College Park, MD",
    "zip": 20740
  },
  {
    "id": 1712,
    "name": "BOWLERO COLLEGE PARK",
    "address1": "9021 Baltimore Ave",
    "address2": "College Park, MD",
    "zip": 20740
  },
  {
    "id": 1732,
    "name": "DUNKIN DONUTS",
    "address1": "9701 Baltimore Ave",
    "address2": "College Park, MD",
    "zip": 20740
  },
  {
    "id": 1745,
    "name": "BEST WESTERN PLUS COLLEGE PARK HOTEL",
    "address1": "8419 Baltimore Ave",
    "address2": "College Park, MD",
    "zip": 20740
  },
  {
    "id": 1754,
    "name": "BOBBY'S BURGER PALACE",
    "address1": "8150 Baltimore Ave",
    "address2": "College Park, MD",
    "zip": 20740
  },
  {
    "id": 1806,
    "name": "COLD STONE CREAMERY",
    "address1": "7314 Baltimore Ave",
    "address2": "College Park, MD",
    "zip": 20740
  },
  {
    "id": 1812,
    "name": "COLLEGE PARK HOTEL & SUITES",
    "address1": "9020 Baltimore Ave",
    "address2": "College Park, MD",
    "zip": 20740
  },
  {
    "id": 1835,
    "name": "DOMINO'S PIZZA",
    "address1": "7312 Baltimore Ave",
    "address2": "College Park, MD",
    "zip": 20740
  },
  {
    "id": 1905,
    "name": "FISHNET RESTAURANT",
    "address1": "5010 Berwyn Rd",
    "address2": "College Park, MD",
    "zip": 20740
  },
  {
    "id": 1906,
    "name": "PLAYA BOWLS",
    "address1": "7417 Baltimore Ave",
    "address2": "College Park, MD",
    "zip": 20740
  },
  {
    "id": 1929,
    "name": "HAMPTON INN COLLEGE PARK",
    "address1": "9670 Baltimore Ave",
    "address2": "College Park, MD",
    "zip": 20740
  },
  {
    "id": 1955,
    "name": "I YOGGIE",
    "address1": "4732 Cherry Hill Rd",
    "address2": "College Park, MD",
    "zip": 20740
  },
  {
    "id": 1972,
    "name": "JIMMY JOHN'S",
    "address1": "7410 Baltimore Ave",
    "address2": "College Park, MD",
    "zip": 20740
  },
  {
    "id": 1986,
    "name": "THE LOBBY CAFE",
    "address1": "9658 Baltimore Ave",
    "address2": "College Park, MD",
    "zip": 20740
  },
  {
    "id": 2007,
    "name": "LOS AMIGOS LATIN MARKET",
    "address1": "5003 Greenbelt Rd",
    "address2": "College Park, MD",
    "zip": 20740
  },
  {
    "id": 2024,
    "name": "MCDONALDS",
    "address1": "8301 Baltimore Ave",
    "address2": "College Park, MD",
    "zip": 20740
  },
  {
    "id": 2051,
    "name": "MCDONALDS",
    "address1": "6219 Greenbelt Rd",
    "address2": "College Park, MD",
    "zip": 20740
  },
  {
    "id": 2077,
    "name": "DUNKIN DONUTS",
    "address1": "10260 Baltimore Ave",
    "address2": "College Park, MD",
    "zip": 20740
  },
  {
    "id": 2078,
    "name": "SOPHIA MARKET",
    "address1": "5000 Edgewood Rd",
    "address2": "College Park, MD",
    "zip": 20740
  },
  {
    "id": 2100,
    "name": "PAINT BRANCH GOLF COMPLEX",
    "address1": "4690 University Blvd",
    "address2": "College Park, MD",
    "zip": 20740
  },
  {
    "id": 2104,
    "name": "PAPA JOHNS",
    "address1": "4509 College Ave",
    "address2": "College Park, MD",
    "zip": 20740
  },
  {
    "id": 2138,
    "name": "POTBELLY SANDWICH WORKS",
    "address1": "7422 Baltimore Ave",
    "address2": "College Park, MD",
    "zip": 20740
  },
  {
    "id": 2139,
    "name": "POTBELLY SANDWICH WORKS",
    "address1": "10260 Baltimore Ave",
    "address2": "College Park, MD",
    "zip": 20740
  },
  {
    "id": 2150,
    "name": "DAYS INN/HOWARD JOHNSON INN",
    "address1": "9113 Baltimore Ave",
    "address2": "College Park, MD",
    "zip": 20740
  },
  {
    "id": 2155,
    "name": "RITA'S COLLEGE PARK",
    "address1": "8900 Baltimore Ave",
    "address2": "College Park, MD",
    "zip": 20740
  },
  {
    "id": 2165,
    "name": "THE BOARD AND BREW",
    "address1": "8150 Baltimore Ave",
    "address2": "College Park, MD",
    "zip": 20740
  },
  {
    "id": 2191,
    "name": "SEVEN ELEVEN",
    "address1": "8905 Rhode Island Ave",
    "address2": "College Park, MD",
    "zip": 20740
  },
  {
    "id": 2196,
    "name": "SEVEN ELEVEN",
    "address1": "4404 Knox Rd",
    "address2": "College Park, MD",
    "zip": 20740
  },
  {
    "id": 2224,
    "name": "SEVEN ELEVEN",
    "address1": "8600 Baltimore Ave",
    "address2": "College Park, MD",
    "zip": 20740
  },
  {
    "id": 2228,
    "name": "SEVEN ELEVEN",
    "address1": "4921 Edgewood Rd",
    "address2": "College Park, MD",
    "zip": 20740
  },
  {
    "id": 2232,
    "name": "SEVEN ELEVEN",
    "address1": "8900 Edmonston Rd",
    "address2": "College Park, MD",
    "zip": 20740
  },
  {
    "id": 2248,
    "name": "SEVEN ELEVEN",
    "address1": "5815 Greenbelt Rd",
    "address2": "College Park, MD",
    "zip": 20740
  },
  {
    "id": 2274,
    "name": "SMOOTHIE KING",
    "address1": "7403 Baltimore Ave",
    "address2": "College Park, MD",
    "zip": 20740
  },
  {
    "id": 2280,
    "name": "STARBUCKS COFFEE",
    "address1": "4750 Cherry Hill Rd",
    "address2": "College Park, MD",
    "zip": 20740
  },
  {
    "id": 2284,
    "name": "STARBUCKS COFFEE",
    "address1": "7338 Baltimore Ave",
    "address2": "College Park, MD",
    "zip": 20740
  },
  {
    "id": 2329,
    "name": "TOWN HALL RESTAURANT AND LIQUOR",
    "address1": "8135 Baltimore Ave",
    "address2": "College Park, MD",
    "zip": 20740
  },
  {
    "id": 2333,
    "name": "24 SHOP (UMCP)",
    "address1": "3841 Campus Dr",
    "address2": "College Park, MD",
    "zip": 20742
  },
  {
    "id": 2334,
    "name": "MD STADIUM LOWER CONCOURSE STANDS 12-20 (UMCP)",
    "address1": "3841 Campus Dr",
    "address2": "College Park, MD",
    "zip": 20742
  },
  {
    "id": 2335,
    "name": "MD STADIUM MID CONCOURSE STANDS 205-212 (UMCP)",
    "address1": "3841 Campus Dr",
    "address2": "College Park, MD",
    "zip": 20742
  },
  {
    "id": 2336,
    "name": "MD STADIUM LOWER CONCOURSE STANDS 2-10 (UMCP)",
    "address1": "3841 Campus Dr",
    "address2": "College Park, MD",
    "zip": 20742
  },
  {
    "id": 2337,
    "name": "MD STADIUM CONCESSIONS 23-28 (UMCP)",
    "address1": "3841 Campus Dr",
    "address2": "College Park, MD",
    "zip": 20742
  },
  {
    "id": 2338,
    "name": "MARYLAND STADIUM VENDORS COMMISSARY (UMCP)",
    "address1": "3841 Campus Dr",
    "address2": "College Park, MD",
    "zip": 20742
  },
  {
    "id": 2339,
    "name": "MD STADIUM UPPER CONCOURSE STANDS 302-312 (UMCP)",
    "address1": "3841 Campus Dr",
    "address2": "College Park, MD",
    "zip": 20742
  },
  {
    "id": 2340,
    "name": "CAMPUS RECREATION CENTER NATATORIUM (UMCP)",
    "address1": "3841 Campus Dr",
    "address2": "College Park, MD",
    "zip": 20742
  },
  {
    "id": 2341,
    "name": "COFFEE BAR (UMCP)",
    "address1": "3841 Campus Dr",
    "address2": "College Park, MD",
    "zip": 20742
  },
  {
    "id": 2343,
    "name": "XFINITY CENTER LOWER LEVEL STANDS /PRESS PANTRY (UMCP)",
    "address1": "3841 Campus Dr",
    "address2": "College Park, MD",
    "zip": 20742
  },
  {
    "id": 2344,
    "name": "XFINITY CENTER - NORTH CONCOURSE (UMCP)",
    "address1": "3841 Campus Dr",
    "address2": "College Park, MD",
    "zip": 20742
  },
  {
    "id": 2345,
    "name": "XFINITY CENTER - SOUTH CONCOURSE (UMCP)",
    "address1": "3841 Campus Dr",
    "address2": "College Park, MD",
    "zip": 20742
  },
  {
    "id": 2347,
    "name": "E & M SUBWAY 1738 (UMCP)",
    "address1": "3841 Campus Dr",
    "address2": "College Park, MD",
    "zip": 20742
  },
  {
    "id": 2349,
    "name": "FOOTNOTES (UMCP)",
    "address1": "3841 Campus Dr",
    "address2": "College Park, MD",
    "zip": 20742
  },
  {
    "id": 2350,
    "name": "GRAND BALLROOM (UMCP)",
    "address1": "3972 Campus Dr",
    "address2": "College Park, MD",
    "zip": 20742
  },
  {
    "id": 2352,
    "name": "MCDONALDS  (UMCP)",
    "address1": "3972 Campus Dr",
    "address2": "College Park, MD",
    "zip": 20742
  },
  {
    "id": 2353,
    "name": "MOBY DICK XPRESS (UMCP)",
    "address1": "3972 Campus Dr",
    "address2": "College Park, MD",
    "zip": 20742
  },
  {
    "id": 2356,
    "name": "RITCHIE COLISEUM (UMCP)",
    "address1": "3841 Campus Dr",
    "address2": "College Park, MD",
    "zip": 20742
  },
  {
    "id": 2357,
    "name": "RUDY'S CAFE (UMCP)",
    "address1": "3841 Campus Dr",
    "address2": "College Park, MD",
    "zip": 20742
  },
  {
    "id": 2358,
    "name": "SNEAKERS (UMCP)",
    "address1": "3841 Campus Dr",
    "address2": "College Park, MD",
    "zip": 20742
  },
  {
    "id": 2360,
    "name": "THE COMMONS SHOP (UMCP)",
    "address1": "3841 Campus Dr",
    "address2": "College Park, MD",
    "zip": 20742
  },
  {
    "id": 2388,
    "name": "UNIVERSITY MART XTRA FUEL",
    "address1": "8721 Baltimore Ave",
    "address2": "College Park, MD",
    "zip": 20740
  },
  {
    "id": 2467,
    "name": "CHERRY HILL PARK CAMPSTORE",
    "address1": "9800 Cherry Hill Rd",
    "address2": "College Park, MD",
    "zip": 20740
  },
  {
    "id": 2497,
    "name": "CVS PHARMACY 1444",
    "address1": "7300 Baltimore Ave",
    "address2": "College Park, MD",
    "zip": 20740
  },
  {
    "id": 2637,
    "name": "GENERAL NUTRITION CENTER",
    "address1": "4744 Cherry Hill Rd",
    "address2": "College Park, MD",
    "zip": 20740
  },
  {
    "id": 2736,
    "name": "MOM'S ORGANIC MARKET",
    "address1": "9827 Rhode Island Ave",
    "address2": "College Park, MD",
    "zip": 20740
  },
  {
    "id": 2760,
    "name": "ONE STOP SHOP",
    "address1": "4509 College Ave",
    "address2": "College Park, MD",
    "zip": 20740
  },
  {
    "id": 2769,
    "name": "PARK MART",
    "address1": "6100 Westchester Park Dr",
    "address2": "College Park, MD",
    "zip": 20740
  },
  {
    "id": 2819,
    "name": "ROUTE ONE SHELL",
    "address1": "10211 Baltimore Ave",
    "address2": "College Park, MD",
    "zip": 20740
  },
  {
    "id": 2833,
    "name": "KIM'S MARKET",
    "address1": "9348 Cherry Hill Rd",
    "address2": "College Park, MD",
    "zip": 20740
  },
  {
    "id": 2857,
    "name": "SMILE HERB SHOP",
    "address1": "4908 Berwyn Rd",
    "address2": "College Park, MD",
    "zip": 20740
  },
  {
    "id": 2884,
    "name": "SUPER 8",
    "address1": "9150 Baltimore Ave",
    "address2": "College Park, MD",
    "zip": 20740
  },
  {
    "id": 2916,
    "name": "BYTES @ AV WILLIAMS (UMCP)",
    "address1": "3841 Campus Dr",
    "address2": "College Park, MD",
    "zip": 20742
  },
  {
    "id": 2917,
    "name": "COFFEE SHOP (UMCP)",
    "address1": "3841 Campus Dr",
    "address2": "College Park, MD",
    "zip": 20742
  },
  {
    "id": 2919,
    "name": "LEONARDTOWN SHOP (UMCP)",
    "address1": "3841 Campus Dr",
    "address2": "College Park, MD",
    "zip": 20742
  },
  {
    "id": 2920,
    "name": "NORTH CAMPUS SNACK & SHOP (UMCP)",
    "address1": "3841 Campus Dr",
    "address2": "College Park, MD",
    "zip": 20742
  },
  {
    "id": 2921,
    "name": "OFF THE RECORD (UMCP)",
    "address1": "3841 Campus Dr",
    "address2": "College Park, MD",
    "zip": 20742
  },
  {
    "id": 2924,
    "name": "UNION SHOP (UMCP)",
    "address1": "3841 Campus Dr",
    "address2": "College Park, MD",
    "zip": 20742
  },
  {
    "id": 3048,
    "name": "LA PRIMA COMMISSARY",
    "address1": "5105 Berwyn Rd",
    "address2": "College Park, MD",
    "zip": 20740
  },
  {
    "id": 3219,
    "name": "IVY NOODLES",
    "address1": "7313 Baltimore Ave",
    "address2": "College Park, MD",
    "zip": 20740
  },
  {
    "id": 3414,
    "name": "XFINITY CENTER - PLAZA LEVEL (UMCP)",
    "address1": "3841 Campus Dr",
    "address2": "College Park, MD",
    "zip": 20742
  },
  {
    "id": 6217,
    "name": "TEN ASIAN FOOD HALL",
    "address1": "7313 Baltimore Ave",
    "address2": "College Park, MD",
    "zip": 20740
  },
  {
    "id": 6345,
    "name": "FRUTTA BOWLS",
    "address1": "8150 Baltimore Ave",
    "address2": "College Park, MD",
    "zip": 20740
  },
  {
    "id": 6862,
    "name": "T SWIRL CREPE",
    "address1": "7313 Baltimore Ave",
    "address2": "College Park, MD",
    "zip": 20740
  },
  {
    "id": 7186,
    "name": "THE RED BOAT",
    "address1": "7412 Baltimore Ave",
    "address2": "College Park, MD",
    "zip": 20740
  },
  {
    "id": 7256,
    "name": "UMCP - ESJ SHOP",
    "address1": "4131 Campus Dr",
    "address2": "College Park, MD",
    "zip": 20742
  },
  {
    "id": 7349,
    "name": "UMCP - THE DAIRY",
    "address1": "3841 Campus Dr",
    "address2": "College Park, MD",
    "zip": 20742
  },
  {
    "id": 7379,
    "name": "DOMINO'S PIZZA 4658",
    "address1": "8904 62Nd Ave",
    "address2": "College Park, MD",
    "zip": 20740
  },
  {
    "id": 7398,
    "name": "DENNY'S RESTAURANT",
    "address1": "8424 Baltimore Ave",
    "address2": "College Park, MD",
    "zip": 20740
  },
  {
    "id": 7438,
    "name": "MOM'S ORGANIC MARKET",
    "address1": "9801 Rhode Island Ave",
    "address2": "College Park, MD",
    "zip": 20740
  },
  {
    "id": 7449,
    "name": "TUTTI FRUTTI FROZEN YOGURT",
    "address1": "3711 Campus Dr",
    "address2": "College Park, MD",
    "zip": 20740
  },
  {
    "id": 7465,
    "name": "UMCP - QUANTUM CAFE",
    "address1": "3618 Campus Dr",
    "address2": "College Park, MD",
    "zip": 20742
  },
  {
    "id": 7499,
    "name": "KANGNAM BBQ",
    "address1": "8503 Baltimore Ave",
    "address2": "College Park, MD",
    "zip": 20740
  },
  {
    "id": 7503,
    "name": "GATEWAY NEWSSTAND",
    "address1": "3711 Campus Dr",
    "address2": "College Park, MD",
    "zip": 20740
  },
  {
    "id": 7504,
    "name": "SUBWAY SANDWICH AND SALAD RESTAURANT",
    "address1": "3711 Campus Dr",
    "address2": "College Park, MD",
    "zip": 20740
  },
  {
    "id": 7505,
    "name": "CASEYS COFFEE",
    "address1": "3711 Campus Dr",
    "address2": "College Park, MD",
    "zip": 20740
  },
  {
    "id": 7540,
    "name": "UMCP - BRBEAN CAFE",
    "address1": "3841 Campus Dr",
    "address2": "College Park, MD",
    "zip": 20742
  },
  {
    "id": 7556,
    "name": "CAMBRIA COLLEGE PARK - SUNDRY SHOP",
    "address1": "8321 Baltimore Ave",
    "address2": "College Park, MD",
    "zip": 20740
  },
  {
    "id": 8005,
    "name": "BLAZE PIZZA",
    "address1": "7419 Baltimore Ave",
    "address2": "College Park, MD",
    "zip": 20740
  },
  {
    "id": 8012,
    "name": "MR SMOOTHIE",
    "address1": "10260 Baltimore Ave",
    "address2": "College Park, MD",
    "zip": 20740
  },
  {
    "id": 8070,
    "name": "THE RAIL",
    "address1": "7313 Baltimore Ave",
    "address2": "College Park, MD",
    "zip": 20740
  },
  {
    "id": 8116,
    "name": "SEVEN ELEVEN 35726A",
    "address1": "7201 Baltimore Ave",
    "address2": "College Park, MD",
    "zip": 20740
  },
  {
    "id": 8122,
    "name": "STAR HALAL MEAT",
    "address1": "4936 Edgewood Rd",
    "address2": "College Park, MD",
    "zip": 20740
  },
  {
    "id": 8132,
    "name": "JUMBO CAFE",
    "address1": "3711 Campus Dr",
    "address2": "College Park, MD",
    "zip": 20740
  },
  {
    "id": 8133,
    "name": "FUJISAN SUSHI (INSIDE SHOPPERS)",
    "address1": "4720 Cherry Hill Rd",
    "address2": "College Park, MD",
    "zip": 20740
  },
  {
    "id": 8147,
    "name": "INSOMNIA COOKIES",
    "address1": "4435 Lehigh Rd",
    "address2": "College Park, MD",
    "zip": 20740
  },
  {
    "id": 8158,
    "name": "DASH IN FOOD STORE",
    "address1": "6001 Greenbelt Rd",
    "address2": "College Park, MD",
    "zip": 20740
  },
  {
    "id": 8198,
    "name": "PANDA EXPRESS 2578",
    "address1": "7316 Baltimore Ave",
    "address2": "College Park, MD",
    "zip": 20740
  },
  {
    "id": 8241,
    "name": "TARGET STORE T3211",
    "address1": "4500 College Ave",
    "address2": "College Park, MD",
    "zip": 20740
  },
  {
    "id": 8258,
    "name": "KUNG FU TEA",
    "address1": "7313 Baltimore Ave",
    "address2": "College Park, MD",
    "zip": 20740
  },
  {
    "id": 8268,
    "name": "TROPICAL SMOOTHIE CAFE",
    "address1": "10260 Baltimore Ave",
    "address2": "College Park, MD",
    "zip": 20740
  },
  {
    "id": 8320,
    "name": "PAISANOS COLLEGE PARK",
    "address1": "7201 Baltimore Ave",
    "address2": "College Park, MD",
    "zip": 20740
  },
  {
    "id": 8349,
    "name": "UMCP - CREATIVE COMMONS AT TAWES",
    "address1": "3841 Campus Dr",
    "address2": "College Park, MD",
    "zip": 20742
  },
  {
    "id": 8354,
    "name": "QU JAPAN",
    "address1": "7406 Baltimore Ave",
    "address2": "College Park, MD",
    "zip": 20740
  },
  {
    "id": 8355,
    "name": "LANDMARK CAFE",
    "address1": "4500 College Ave",
    "address2": "College Park, MD",
    "zip": 20740
  },
  {
    "id": 8396,
    "name": "UMCP - SAMOVAR",
    "address1": "4065 Campus Dr",
    "address2": "College Park, MD",
    "zip": 20742
  },
  {
    "id": 8417,
    "name": "MILKBOY ARTHOUSE",
    "address1": "7416 Baltimore Ave",
    "address2": "College Park, MD",
    "zip": 20740
  },
  {
    "id": 8438,
    "name": "CVS PHARMACY 10168",
    "address1": "8319 Baltimore Ave",
    "address2": "College Park, MD",
    "zip": 20740
  },
  {
    "id": 8443,
    "name": "POH-YO",
    "address1": "8147 Baltimore Ave",
    "address2": "College Park, MD",
    "zip": 20740
  },
  {
    "id": 8448,
    "name": "LOTSA STONE FIRED PIZZA",
    "address1": "4350 Knox Rd",
    "address2": "College Park, MD",
    "zip": 20740
  },
  {
    "id": 8458,
    "name": "THE HOTEL @ UMCP - POTOMAC PIZZA",
    "address1": "7777 Baltimore Ave",
    "address2": "College Park, MD",
    "zip": 20740
  },
  {
    "id": 8464,
    "name": "OLD MARYLAND GRILL",
    "address1": "7777 Baltimore Ave",
    "address2": "College Park, MD",
    "zip": 20740
  },
  {
    "id": 8480,
    "name": "UMCP - HIBACHI SAN 66",
    "address1": "3841 Campus Dr",
    "address2": "College Park, MD",
    "zip": 20742
  },
  {
    "id": 12373,
    "name": "TOWNEPLACE SUITES BY MARRIOTT",
    "address1": "9620 Baltimore Ave",
    "address2": "College Park, MD",
    "zip": 20740
  },
  {
    "id": 13196,
    "name": "UMCP - ESJ CAFE SUPPORT KITCHEN",
    "address1": "4131 Campus Dr",
    "address2": "College Park, MD",
    "zip": 20742
  },
  {
    "id": 13325,
    "name": "THE HOTEL @ UMCP- EMPLOYEE LOUNGE",
    "address1": "7777 Baltimore Ave",
    "address2": "College Park, MD",
    "zip": 20740
  },
  {
    "id": 13326,
    "name": "THE HOTEL @ UMCP - BAGELS 'N GRINDS",
    "address1": "7777 Baltimore Ave",
    "address2": "College Park, MD",
    "zip": 20740
  },
  {
    "id": 13334,
    "name": "THE HOTEL @ UMCP - LOBBY BAR",
    "address1": "7777 Baltimore Ave",
    "address2": "College Park, MD",
    "zip": 20740
  },
  {
    "id": 13335,
    "name": "THE HOTEL @ UMCP - BANQUET KITCHEN",
    "address1": "7777 Baltimore Ave",
    "address2": "College Park, MD",
    "zip": 20740
  },
  {
    "id": 13336,
    "name": "THE HOTEL @ UMCP - PENTHOUSE PREP KITCHEN",
    "address1": "7777 Baltimore Ave",
    "address2": "College Park, MD",
    "zip": 20740
  },
  {
    "id": 13337,
    "name": "THE HOTEL @ UMCP - CONCIERGE LOUNGE",
    "address1": "7777 Baltimore Ave",
    "address2": "College Park, MD",
    "zip": 20740
  },
  {
    "id": 13385,
    "name": "THE HOTEL @ UMCP - SUNDRY CONVENIENCE",
    "address1": "7777 Baltimore Ave",
    "address2": "College Park, MD",
    "zip": 20740
  },
  {
    "id": 13942,
    "name": "UMCP - ESJ KIOSK G",
    "address1": "4131 Campus Dr",
    "address2": "College Park, MD",
    "zip": 20742
  },
  {
    "id": 13943,
    "name": "UMCP - ESJ KIOSK 2",
    "address1": "4131 Campus Dr",
    "address2": "College Park, MD",
    "zip": 20742
  },
  {
    "id": 13944,
    "name": "UMCP - ESJ CAFE 1207",
    "address1": "4131 Campus Dr",
    "address2": "College Park, MD",
    "zip": 20742
  },
  {
    "id": 14075,
    "name": "VIGILANTE COFFEE",
    "address1": "8200 Baltimore Ave",
    "address2": "College Park, MD",
    "zip": 20740
  },
  {
    "id": 14216,
    "name": "DUNKIN DONUTS",
    "address1": "4211 Knox Rd",
    "address2": "College Park, MD",
    "zip": 20740
  },
  {
    "id": 14558,
    "name": "COLLEGE PARK GRILL",
    "address1": "8321 Baltimore Ave",
    "address2": "College Park, MD",
    "zip": 20740
  },
  {
    "id": 14927,
    "name": "SEOUL SPICE 3",
    "address1": "4200 Guilford Rd",
    "address2": "College Park, MD",
    "zip": 20740
  },
  {
    "id": 14966,
    "name": "CAVA",
    "address1": "7350 Baltimore Ave",
    "address2": "College Park, MD",
    "zip": 20740
  },
  {
    "id": 14969,
    "name": "TAQUERIA HABANARO",
    "address1": "8145 Baltimore Ave",
    "address2": "College Park, MD",
    "zip": 20740
  },
  {
    "id": 14979,
    "name": "WINGS OVER COLLEGE PARK",
    "address1": "4200 Hartwick Rd",
    "address2": "College Park, MD",
    "zip": 20740
  },
  {
    "id": 15395,
    "name": "UMCP - BREAKPOINT CAFE (IRIBE BUILDING)",
    "address1": "8125 Paint Branch Dr",
    "address2": "College Park, MD",
    "zip": 20742
  },
  {
    "id": 15487,
    "name": "LIDL",
    "address1": "8601 Baltimore Ave",
    "address2": "College Park, MD",
    "zip": 20740
  },
  {
    "id": 15612,
    "name": "LA TAO",
    "address1": "8700 Baltimore Ave",
    "address2": "College Park, MD",
    "zip": 20740
  },
  {
    "id": 15885,
    "name": "CLASS 520",
    "address1": "3711 Campus Dr",
    "address2": "College Park, MD",
    "zip": 20740
  },
  {
    "id": 16076,
    "name": "FIVE GUYS BURGERS AND FRIES",
    "address1": "7346 Baltimore Ave",
    "address2": "College Park, MD",
    "zip": 20740
  }
]